[{"OBJECT_NAME":"STARLINK-5385","OBJECT_ID":"2022-177B","EPOCH":"2026-03-08T14:58:13.496448","MEAN_MOTION":15.02539294,"ECCENTRICITY":0.00013771,"INCLINATION":43.0019,"RA_OF_ASC_NODE":139.2425,"ARG_OF_PERICENTER":260.3181,"MEAN_ANOMALY":99.7505,"EPHEMERIS_TYPE":0,"CLASSIFICATION_TYPE":"U","NORAD_CAT_ID":54821,"ELEMENT_SET_NO":999,"REV_AT_EPOCH":17679,"BSTAR":8.519823e-5,"MEAN_MOTION_DOT":9.48e-6,"MEAN_MOTION_DDOT":0},{"OBJECT_NAME":"IRIDIUM 33 DEB","OBJECT_ID":"1997-051VK","EPOCH":"2026-03-08T19:51:10.655424","MEAN_MOTION":15.00290565,"ECCENTRICITY":0.00168472,"INCLINATION":86.319,"RA_OF_ASC_NODE":266.0445,"ARG_OF_PERICENTER":92.2879,"MEAN_ANOMALY":268.0282,"EPHEMERIS_TYPE":0,"CLASSIFICATION_TYPE":"U","NORAD_CAT_ID":36028,"ELEMENT_SET_NO":999,"REV_AT_EPOCH":88413,"BSTAR":0.0028450528,"MEAN_MOTION_DOT":0.00035903,"MEAN_MOTION_DDOT":0}]
